ONEWEB-0171             
1 48070U 21025AE  24292.33992547  .00000286  00000+0  74802-3 0  9999
2 48070  87.8879  80.9706 0001726  91.5853 268.5474 13.13467679173953
ONEWEB-0172             
1 48071U 21025AF  24292.47165812  .00000206  00000+0  53019-3 0  9991
2 48071  87.8879  80.9107 0001740  89.3082 270.8246 13.13468971174864
ONEWEB-0174             
1 48072U 21025AG  24292.45418785 -.00000238  00000+0 -68667-3 0  9992
2 48072  87.8879  80.9284 0001484  95.3995 264.7303 13.13468059174184
ONEWEB-0175             
1 48073U 21025AH  24292.40656950  .00000370  00000+0  97940-3 0  9997
2 48073  87.8875  80.9190 0001962  92.6459 267.4895 13.13473331173839
ONEWEB-0177             
1 48074U 21025AJ  24292.41927505  .00000380  00000+0  10061-2 0  9995
2 48074  87.8872  80.9261 0001489  81.6702 278.4596 13.13467295174023
ONEWEB-0178             
1 48075U 21025AK  24292.43686040 -.00000160  00000+0 -47202-3 0  9990
2 48075  87.8882  80.9488 0001612  87.1504 272.9809 13.13467355174073
ONEWEB-0108             
1 48076U 21025AL  24292.47324162  .00000224  00000+0  57907-3 0  9991
2 48076  87.8874  80.9124 0001545 101.7880 258.3423 13.13468645174003
ONEWEB-0169             
1 48077U 21025AM  24292.42879146  .00000010  00000+0 -63835-5 0  9997
2 48077  87.8878  80.9342 0001479 101.8016 258.3279 13.13473502172654
